QIANFAN-65              
1 62795U 25016L   25342.58293927  .00000214  00000+0  31221-3 0  9992
2 62795  88.9759 103.4882 0013448   2.0822 358.0383 13.50982926 46686
QIANFAN-66              
1 62796U 25016M   25342.61169846  .00000197  00000+0  28588-3 0  9991
2 62796  88.9779 103.4545 0014422 356.8727   3.2332 13.50975635 46730
QIANFAN-67              
1 62797U 25016N   25342.61596459  .00000203  00000+0  29617-3 0  9998
2 62797  88.9769 103.4801 0014588   4.0021 356.1244 13.50979847 46705
QIANFAN-68              
1 62798U 25016P   25342.60766661  .00000207  00000+0  30244-3 0  9994
2 62798  88.9773 103.5260 0014591   2.1728 357.9483 13.50982216 46683
QIANFAN-69              
1 62799U 25016Q   25342.62416934  .00000205  00000+0  29919-3 0  9997
2 62799  88.9752 103.3946 0015371   2.9772 357.1468 13.50985073 46728
QIANFAN-70              
1 62800U 25016R   25342.64056490  .00000219  00000+0  32100-3 0  9990
2 62800  88.9773 103.5305 0014709 353.1187   6.9760 13.50975978 46682
QIANFAN-71              
1 62801U 25016S   25342.63642643  .00000213  00000+0  31174-3 0  9995
2 62801  88.9767 103.5106 0015393   6.5887 353.5464 13.50983082 46688
QIANFAN-72              
1 62802U 25016T   25342.57883621  .00000203  00000+0  29538-3 0  9992
2 62802  88.9757 103.5303 0018859  12.9620 347.2012 13.50983004 46664
